STARLINK-2406
1 27821C 21018AL  21325.14861154  .00002348  00000-0  15734-3 0  3250
2 27821  53.0555  97.5710 0001350  71.6238 343.6677 15.06388095    14
